CCSDS_OMM_VERS = 2.0
CREATION_DATE  = 
ORIGINATOR     = 

OBJECT_NAME    = STARLINK-35494
OBJECT_ID      = 2025-225T
CENTER_NAME    = EARTH
REF_FRAME      = TEME
TIME_SYSTEM    = UTC
MEAN_ELEMENT_THEORY = SGP/SGP4

EPOCH          = 2025-11-04T04:00:01.998720
MEAN_MOTION    = 15.49293427
ECCENTRICITY   = .0000889
INCLINATION    = 53.1606
RA_OF_ASC_NODE = 30.7196
ARG_OF_PERICENTER = 84.3116
MEAN_ANOMALY   = 209.7217

EPHEMERIS_TYPE = 0
CLASSIFICATION_TYPE = U
NORAD_CAT_ID   = 65927
ELEMENT_SET_NO = 999
REV_AT_EPOCH   = 522
BSTAR          = -.15577E-5
MEAN_MOTION_DOT = -.534E-5
MEAN_MOTION_DDOT = 0

CCSDS_OMM_VERS = 2.0
CREATION_DATE  = 
ORIGINATOR     = 

OBJECT_NAME    = STARLINK-35493
OBJECT_ID      = 2025-225U
CENTER_NAME    = EARTH
REF_FRAME      = TEME
TIME_SYSTEM    = UTC
MEAN_ELEMENT_THEORY = SGP/SGP4

EPOCH          = 2025-11-04T04:00:01.998720
MEAN_MOTION    = 15.49291754
ECCENTRICITY   = .0000966
INCLINATION    = 53.1608
RA_OF_ASC_NODE = 30.7117
ARG_OF_PERICENTER = 94.4781
MEAN_ANOMALY   = 203.3895

EPHEMERIS_TYPE = 0
CLASSIFICATION_TYPE = U
NORAD_CAT_ID   = 65928
ELEMENT_SET_NO = 999
REV_AT_EPOCH   = 517
BSTAR          = .41124E-4
MEAN_MOTION_DOT = .1838E-4
MEAN_MOTION_DDOT = 0

CCSDS_OMM_VERS = 2.0
CREATION_DATE  = 
ORIGINATOR     = 

OBJECT_NAME    = STARLINK-35175
OBJECT_ID      = 2025-225V
CENTER_NAME    = EARTH
REF_FRAME      = TEME
TIME_SYSTEM    = UTC
MEAN_ELEMENT_THEORY = SGP/SGP4

EPOCH          = 2025-11-04T04:00:01.998720
MEAN_MOTION    = 15.49289651
ECCENTRICITY   = .0001141
INCLINATION    = 53.1605
RA_OF_ASC_NODE = 30.7081
ARG_OF_PERICENTER = 96.0462
MEAN_ANOMALY   = 203.7443

EPHEMERIS_TYPE = 0
CLASSIFICATION_TYPE = U
NORAD_CAT_ID   = 65929
ELEMENT_SET_NO = 999
REV_AT_EPOCH   = 522
BSTAR          = .30344E-4
MEAN_MOTION_DOT = .1239E-4
MEAN_MOTION_DDOT = 0

CCSDS_OMM_VERS = 2.0
CREATION_DATE  = 
ORIGINATOR     = 

OBJECT_NAME    = STARLINK-35513
OBJECT_ID      = 2025-225W
CENTER_NAME    = EARTH
REF_FRAME      = TEME
TIME_SYSTEM    = UTC
MEAN_ELEMENT_THEORY = SGP/SGP4

EPOCH          = 2025-11-04T04:00:01.998720
MEAN_MOTION    = 15.49282990
ECCENTRICITY   = .000097
INCLINATION    = 53.1607
RA_OF_ASC_NODE = 30.7155
ARG_OF_PERICENTER = 82.5806
MEAN_ANOMALY   = 213.3769

EPHEMERIS_TYPE = 0
CLASSIFICATION_TYPE = U
NORAD_CAT_ID   = 65930
ELEMENT_SET_NO = 999
REV_AT_EPOCH   = 522
BSTAR          = .2102E-3
MEAN_MOTION_DOT = .11248E-3
MEAN_MOTION_DDOT = 0

CCSDS_OMM_VERS = 2.0
CREATION_DATE  = 
ORIGINATOR     = 

OBJECT_NAME    = STARLINK-35526
OBJECT_ID      = 2025-225X
CENTER_NAME    = EARTH
REF_FRAME      = TEME
TIME_SYSTEM    = UTC
MEAN_ELEMENT_THEORY = SGP/SGP4

EPOCH          = 2025-11-04T04:00:01.998720
MEAN_MOTION    = 15.49288745
ECCENTRICITY   = .0001097
INCLINATION    = 53.1606
RA_OF_ASC_NODE = 30.7032
ARG_OF_PERICENTER = 98.5037
MEAN_ANOMALY   = 203.2071

EPHEMERIS_TYPE = 0
CLASSIFICATION_TYPE = U
NORAD_CAT_ID   = 65931
ELEMENT_SET_NO = 999
REV_AT_EPOCH   = 522
BSTAR          = -.71153E-4
MEAN_MOTION_DOT = -.44E-4
MEAN_MOTION_DDOT = 0

CCSDS_OMM_VERS = 2.0
CREATION_DATE  = 
ORIGINATOR     = 

OBJECT_NAME    = STARLINK-35436
OBJECT_ID      = 2025-225Y
CENTER_NAME    = EARTH
REF_FRAME      = TEME
TIME_SYSTEM    = UTC
MEAN_ELEMENT_THEORY = SGP/SGP4

EPOCH          = 2025-11-04T04:00:01.998720
MEAN_MOTION    = 15.49287710
ECCENTRICITY   = .0001183
INCLINATION    = 53.1605
RA_OF_ASC_NODE = 30.7000
ARG_OF_PERICENTER = 95.5722
MEAN_ANOMALY   = 208.0538

EPHEMERIS_TYPE = 0
CLASSIFICATION_TYPE = U
NORAD_CAT_ID   = 65932
ELEMENT_SET_NO = 999
REV_AT_EPOCH   = 522
BSTAR          = .66384E-4
MEAN_MOTION_DOT = .3243E-4
MEAN_MOTION_DDOT = 0

CCSDS_OMM_VERS = 2.0
CREATION_DATE  = 
ORIGINATOR     = 

OBJECT_NAME    = STARLINK-35192
OBJECT_ID      = 2025-225Z
CENTER_NAME    = EARTH
REF_FRAME      = TEME
TIME_SYSTEM    = UTC
MEAN_ELEMENT_THEORY = SGP/SGP4

EPOCH          = 2025-11-04T04:00:01.998720
MEAN_MOTION    = 15.49287438
ECCENTRICITY   = .0001099
INCLINATION    = 53.1606
RA_OF_ASC_NODE = 30.6876
ARG_OF_PERICENTER = 91.1147
MEAN_ANOMALY   = 218.2559

EPHEMERIS_TYPE = 0
CLASSIFICATION_TYPE = U
NORAD_CAT_ID   = 65933
ELEMENT_SET_NO = 999
REV_AT_EPOCH   = 523
BSTAR          = .13753E-3
MEAN_MOTION_DOT = .7202E-4
MEAN_MOTION_DDOT = 0

CCSDS_OMM_VERS = 2.0
CREATION_DATE  = 
ORIGINATOR     = 

OBJECT_NAME    = STARLINK-33921
OBJECT_ID      = 2025-225AA
CENTER_NAME    = EARTH
REF_FRAME      = TEME
TIME_SYSTEM    = UTC
MEAN_ELEMENT_THEORY = SGP/SGP4

EPOCH          = 2025-11-04T04:00:01.998720
MEAN_MOTION    = 15.49292320
ECCENTRICITY   = .0001157
INCLINATION    = 53.1605
RA_OF_ASC_NODE = 30.6959
ARG_OF_PERICENTER = 96.1109
MEAN_ANOMALY   = 209.4306

EPHEMERIS_TYPE = 0
CLASSIFICATION_TYPE = U
NORAD_CAT_ID   = 65934
ELEMENT_SET_NO = 999
REV_AT_EPOCH   = 521
BSTAR          = -.3105E-4
MEAN_MOTION_DOT = -.2173E-4
MEAN_MOTION_DDOT = 0

CCSDS_OMM_VERS = 2.0
CREATION_DATE  = 
ORIGINATOR     = 

OBJECT_NAME    = STARLINK-35155
OBJECT_ID      = 2025-225AB
CENTER_NAME    = EARTH
REF_FRAME      = TEME
TIME_SYSTEM    = UTC
MEAN_ELEMENT_THEORY = SGP/SGP4

EPOCH          = 2025-11-04T04:00:01.998720
MEAN_MOTION    = 15.49287647
ECCENTRICITY   = .0000974
INCLINATION    = 53.1606
RA_OF_ASC_NODE = 30.6918
ARG_OF_PERICENTER = 83.6731
MEAN_ANOMALY   = 223.7826

EPHEMERIS_TYPE = 0
CLASSIFICATION_TYPE = U
NORAD_CAT_ID   = 65935
ELEMENT_SET_NO = 999
REV_AT_EPOCH   = 521
BSTAR          = .97381E-4
MEAN_MOTION_DOT = .4967E-4
MEAN_MOTION_DDOT = 0

CCSDS_OMM_VERS = 2.0
CREATION_DATE  = 
ORIGINATOR     = 

OBJECT_NAME    = STARLINK-35161
OBJECT_ID      = 2025-225AC
CENTER_NAME    = EARTH
REF_FRAME      = TEME
TIME_SYSTEM    = UTC
MEAN_ELEMENT_THEORY = SGP/SGP4

EPOCH          = 2025-11-04T04:00:01.998720
MEAN_MOTION    = 15.49289267
ECCENTRICITY   = .0000999
INCLINATION    = 53.1606
RA_OF_ASC_NODE = 30.6842
ARG_OF_PERICENTER = 85.4683
MEAN_ANOMALY   = 225.8230

EPHEMERIS_TYPE = 0
CLASSIFICATION_TYPE = U
NORAD_CAT_ID   = 65936
ELEMENT_SET_NO = 999
REV_AT_EPOCH   = 523
BSTAR          = .39091E-4
MEAN_MOTION_DOT = .1725E-4
MEAN_MOTION_DDOT = 0

CCSDS_OMM_VERS = 2.0
CREATION_DATE  = 
ORIGINATOR     = 

OBJECT_NAME    = STARLINK-35473
OBJECT_ID      = 2025-225AD
CENTER_NAME    = EARTH
REF_FRAME      = TEME
TIME_SYSTEM    = UTC
MEAN_ELEMENT_THEORY = SGP/SGP4

EPOCH          = 2025-11-04T04:00:01.998720
MEAN_MOTION    = 15.49287324
ECCENTRICITY   = .0001062
INCLINATION    = 53.1605
RA_OF_ASC_NODE = 30.6806
ARG_OF_PERICENTER = 90.0431
MEAN_ANOMALY   = 223.1665

EPHEMERIS_TYPE = 0
CLASSIFICATION_TYPE = U
NORAD_CAT_ID   = 65937
ELEMENT_SET_NO = 999
REV_AT_EPOCH   = 523
BSTAR          = .55204E-4
MEAN_MOTION_DOT = .2621E-4
MEAN_MOTION_DDOT = 0

CCSDS_OMM_VERS = 2.0
CREATION_DATE  = 
ORIGINATOR     = 

OBJECT_NAME    = 2025-226A
OBJECT_ID      = 2025-226A
CENTER_NAME    = EARTH
REF_FRAME      = TEME
TIME_SYSTEM    = UTC
MEAN_ELEMENT_THEORY = SGP/SGP4

EPOCH          = 2025-11-04T04:05:23.968320
MEAN_MOTION    = 15.11917470
ECCENTRICITY   = .0014998
INCLINATION    = 97.6669
RA_OF_ASC_NODE = 22.3735
ARG_OF_PERICENTER = 197.8230
MEAN_ANOMALY   = 162.2476

EPHEMERIS_TYPE = 0
CLASSIFICATION_TYPE = U
NORAD_CAT_ID   = 65938
ELEMENT_SET_NO = 999
REV_AT_EPOCH   = 364
BSTAR          = .64198E-3
MEAN_MOTION_DOT = .10968E-3
MEAN_MOTION_DDOT = 0

CCSDS_OMM_VERS = 2.0
CREATION_DATE  = 
ORIGINATOR     = 

OBJECT_NAME    = 2025-226B
OBJECT_ID      = 2025-226B
CENTER_NAME    = EARTH
REF_FRAME      = TEME
TIME_SYSTEM    = UTC
MEAN_ELEMENT_THEORY = SGP/SGP4

EPOCH          = 2025-11-04T04:45:20.171232
MEAN_MOTION    = 15.09751454
ECCENTRICITY   = .0020944
INCLINATION    = 97.6633
RA_OF_ASC_NODE = 22.3248
ARG_OF_PERICENTER = 200.5662
MEAN_ANOMALY   = 159.4726

EPHEMERIS_TYPE = 0
CLASSIFICATION_TYPE = U
NORAD_CAT_ID   = 65939
ELEMENT_SET_NO = 999
REV_AT_EPOCH   = 363
BSTAR          = .4023E-3
MEAN_MOTION_DOT = .646E-4
MEAN_MOTION_DDOT = 0

CCSDS_OMM_VERS = 2.0
CREATION_DATE  = 
ORIGINATOR     = 

OBJECT_NAME    = 2025-226C
OBJECT_ID      = 2025-226C
CENTER_NAME    = EARTH
REF_FRAME      = TEME
TIME_SYSTEM    = UTC
MEAN_ELEMENT_THEORY = SGP/SGP4

EPOCH          = 2025-11-04T04:07:57.585792
MEAN_MOTION    = 15.11805026
ECCENTRICITY   = .0014941
INCLINATION    = 97.6577
RA_OF_ASC_NODE = 22.3446
ARG_OF_PERICENTER = 195.7520
MEAN_ANOMALY   = 164.3247

EPHEMERIS_TYPE = 0
CLASSIFICATION_TYPE = U
NORAD_CAT_ID   = 65940
ELEMENT_SET_NO = 999
REV_AT_EPOCH   = 363
BSTAR          = .63498E-3
MEAN_MOTION_DOT = .10813E-3
MEAN_MOTION_DDOT = 0

CCSDS_OMM_VERS = 2.0
CREATION_DATE  = 
ORIGINATOR     = 

OBJECT_NAME    = YOTSUBA-KULOVER
OBJECT_ID      = 1998-067XN
CENTER_NAME    = EARTH
REF_FRAME      = TEME
TIME_SYSTEM    = UTC
MEAN_ELEMENT_THEORY = SGP/SGP4

EPOCH          = 2025-11-03T19:16:08.836320
MEAN_MOTION    = 15.53493482
ECCENTRICITY   = .00026455
INCLINATION    = 51.6325
RA_OF_ASC_NODE = 334.7856
ARG_OF_PERICENTER = 1.5585
MEAN_ANOMALY   = 358.5413

EPHEMERIS_TYPE = 0
CLASSIFICATION_TYPE = U
NORAD_CAT_ID   = 65941
ELEMENT_SET_NO = 999
REV_AT_EPOCH   = 379
BSTAR          = .85063962E-3
MEAN_MOTION_DOT = .54932E-3
MEAN_MOTION_DDOT = 0

